NORAD_CAT_ID,OBJECT_NAME,OBJECT_TYPE,EPOCH,MEAN_MOTION,ECCENTRICITY,INCLINATION,RA_OF_ASC_NODE,ARG_OF_PERICENTER,MEAN_ANOMALY,BSTAR,MEAN_MOTION_DOT,MEAN_MOTION_DDOT,TLE_LINE0,TLE_LINE1,TLE_LINE2,SEMIMAJOR_AXIS,PERIOD,APOGEE,PERIGEE,DECAYED
53025.0,STARLINK-4218,PAYLOAD,2022-07-12 16:00:00,15.8839098,0.0033468,53.2174,354.5778,54.6551,177.329,-0.0040189,-0.01192676,0.00040714,0 STARLINK-4218,1 53025U 22076AR  22193.66667824 -.01192676  40714-3 -40189-2 0  9991,2 53025  53.2174 354.5778 0033468  54.6551 177.3290 15.88390980  1302,6684.931,90.658,329.1690000000001,284.422,0.0
53025.0,STARLINK-4218,PAYLOAD,2022-07-13 04:00:00,15.87252612,0.0028668,53.2175,352.0486,56.2745,155.4256,-0.0043154,-0.01193554,0.00040343,0 STARLINK-4218,1 53025U 22076AR  22194.16667824 -.01193554  40343-3 -43154-2 0  9996,2 53025  53.2175 352.0486 0028668  56.2745 155.4256 15.87252612  1375,6688.126,90.723,329.165,290.818,0.0
53025.0,STARLINK-4218,PAYLOAD,2022-07-13 14:00:01,15.86274963,0.0024995,53.2177,349.9453,55.0933,18.144,-0.0043398999999999,-0.01134523,0.00036463,0 STARLINK-4218,1 53025U 22076AR  22194.58334491 -.01134523  36463-3 -43399-2 0  9993,2 53025  53.2177 349.9453 0024995  55.0933  18.1440 15.86274963  1306,6690.874,90.779,329.463,296.015,0.0
53025.0,STARLINK-4218,PAYLOAD,2022-07-13 22:00:00,15.85529379,0.0021384,53.2173,348.2656,56.4866,120.9406,-0.0046478,-0.01044179,0.0,0 STARLINK-4218,1 53025U 22076AR  22194.91667824 -.01044179  00000-0 -46478-2 0  9992,2 53025  53.2173 348.2656 0021384  56.4866 120.9406 15.85529379  1495,6692.972,90.821,329.149,300.524,0.0
53025.0,STARLINK-4218,PAYLOAD,2022-07-14 14:00:01,15.84006673,0.001541,53.2175,344.9085,52.8994,330.18300000000005,-0.0050174,-0.01035431,0.0,0 STARLINK-4218,1 53025U 22076AR  22195.58334491 -.01035431  00000-0 -50174-2 0  9996,2 53025  53.2175 344.9085 0015410  52.8994 330.1830 15.84006673  1606,6697.26,90.909,329.446,308.805,0.0
53025.0,STARLINK-4218,PAYLOAD,2022-07-14 22:00:00,15.83241146,0.0012639,53.2172,343.2344,53.0449,71.4962,-0.0051561,-0.01022709,0.0,0 STARLINK-4218,1 53025U 22076AR  22195.91667824 -.01022709  00000-0 -51561-2 0  9997,2 53025  53.2172 343.2344 0012639  53.0449  71.4962 15.83241146  1304,6699.419,90.953,329.751,312.816,0.0
53025.0,STARLINK-4218,PAYLOAD,2022-07-15 14:00:01,15.81744166,0.0007016,53.2176,339.8887,43.3943,281.317,-0.005786,-0.01057475,0.0,0 STARLINK-4218,1 53025U 22076AR  22196.58334491 -.01057475  00000-0 -57860-2 0  9998,2 53025  53.2176 339.8887 0007016  43.3943 281.3170 15.81744166  1766,6703.645,91.039,330.213,320.807,0.0
53025.0,STARLINK-4218,PAYLOAD,2022-07-15 22:00:00,15.80966959,0.0004625,53.2171,338.2199,29.1846,34.2518,-0.005812,-0.01026011,0.0,0 STARLINK-4218,1 53025U 22076AR  22196.91667824 -.01026011  00000-0 -58120-2 0  9996,2 53025  53.2171 338.2199 0004625  29.1846  34.2518 15.80966959  1303,6705.842,91.083,330.80800000000005,324.605,0.0
53025.0,STARLINK-4218,PAYLOAD,2022-07-16 14:00:01,15.79457193,0.0003348999999999,53.2174,334.8859,6.0665,252.068,-0.0063381,-0.0105839,0.0,0 STARLINK-4218,1 53025U 22076AR  22197.58334491 -.01058390  00000-0 -63381-2 0  9991,2 53025  53.2174 334.8859 0003349   6.0665 252.0680 15.79457193  1927,6710.115,91.171,334.227,329.732,0.0
53025.0,STARLINK-4218,PAYLOAD,2022-07-16 22:00:00,15.78699354,0.0003046,53.2172,333.2224,5.7534,348.3613,-0.0065696,-0.01059384,0.0,0 STARLINK-4218,1 53025U 22076AR  22197.91667824 -.01059384  00000-0 -65696-2 0  9992,2 53025  53.2172 333.2224 0003046   5.7534 348.3613 15.78699354  1302,6712.262,91.214,336.171,332.082,0.0
53025.0,STARLINK-4218,PAYLOAD,2022-07-17 06:00:00,15.77936666,0.0003049,53.2174,331.5583,7.6913,81.4953,-0.006775,-0.01055723,0.0,0 STARLINK-4218,1 53025U 22076AR  22198.25001157 -.01055723  00000-0 -67750-2 0  9997,2 53025  53.2174 331.5583 0003049   7.6913  81.4953 15.77936666  2029,6714.425,91.258,338.337,334.242,0.0
53025.0,STARLINK-4218,PAYLOAD,2022-07-17 14:00:01,15.77176393,0.0003434,53.2176,329.8996,7.2307,176.1112,-0.0069939999999999,-0.01053599,0.0,0 STARLINK-4218,1 53025U 22076AR  22198.58334491 -.01053599  00000-0 -69940-2 0  9995,2 53025  53.2176 329.8996 0003434   7.2307 176.1112 15.77176393  1302,6716.581999999999,91.302,340.754,336.141,0.0
53025.0,STARLINK-4218,PAYLOAD,2022-07-17 22:00:00,15.76421734,0.000333,53.2171,328.2416,5.4372,271.1461,-0.0072873,-0.01060527,0.0,0 STARLINK-4218,1 53025U 22076AR  22198.91667824 -.01060527  00000-0 -72873-2 0  9999,2 53025  53.2171 328.2416 0003330   5.4372 271.1461 15.76421734  1308,6718.726,91.346,342.8280000000001,338.353,0.0
53025.0,STARLINK-4218,PAYLOAD,2022-07-18 06:00:00,15.75660025,0.0004034,53.2172,326.5832,324.9311,43.9852,-0.0075134,-0.01057786,0.0,0 STARLINK-4218,1 53025U 22076AR  22199.25001157 -.01057786  00000-0 -75134-2 0  9994,2 53025  53.2172 326.5832 0004034 324.9311  43.9852 15.75660025  2189,6720.891,91.39,345.467,340.0440000000001,0.0
53025.0,STARLINK-4218,PAYLOAD,2022-07-18 14:00:01,15.74907471,0.000143,53.2173,324.9304,345.92900000000014,114.4016,-0.0078552999999999,-0.01067354,0.0,0 STARLINK-4218,1 53025U 22076AR  22199.58334491 -.01067354  00000-0 -78553-2 0  9990,2 53025  53.2173 324.9304 0001430 345.9290 114.4016 15.74907471  1309,6723.031,91.434,345.858,343.935,0.0
53025.0,STARLINK-4218,PAYLOAD,2022-07-18 22:00:00,15.74058654,0.0001873,53.2172,323.2777,25.3534,165.5013,-0.00639,-0.00843316,0.0,0 STARLINK-4218,1 53025U 22076AR  22199.91667824 -.00843316  00000-0 -63900-2 0  9995,2 53025  53.2172 323.2777 0001873  25.3534 165.5013 15.74058654  1309,6725.448,91.483,348.5730000000001,346.05400000000014,0.0
53025.0,STARLINK-4218,PAYLOAD,2022-07-19 06:00:00,15.73331959,0.0001177,53.2174,321.6248,99.4242,181.0286,-0.0014138,-0.00195593,0.0,0 STARLINK-4218,1 53025U 22076AR  22200.25001157 -.00195593  00000-0 -14138-2 0  9992,2 53025  53.2174 321.6248 0001177  99.4242 181.0286 15.73331959  2342,6727.519,91.526,350.176,348.592,0.0
53025.0,STARLINK-4218,PAYLOAD,2022-07-19 14:00:01,15.73204911,0.0001349,53.2175,319.9771,53.9291,315.5217,-6.418500000000001e-06,-1.521e-05,0.0,0 STARLINK-4218,1 53025U 22076AR  22200.58334491 -.00001521  00000-0 -64185-5 0  9995,2 53025  53.2175 319.9771 0001349  53.9291 315.5217 15.73204911  2394,6727.880999999999,91.533,350.654,348.839,0.0
53025.0,STARLINK-4218,PAYLOAD,2022-07-19 22:00:00,15.73205653,0.0001202,53.2172,318.3273,62.8055,35.5796,-1.5516e-05,-2.797e-05,0.0,0 STARLINK-4218,1 53025U 22076AR  22200.91667824 -.00002797  00000-0 -15516-4 0  9990,2 53025  53.2172 318.3273 0001202  62.8055  35.5796 15.73205653  1301,6727.879,91.533,350.55300000000005,348.935,0.0
53025.0,STARLINK-4218,PAYLOAD,2022-07-20 04:00:00,15.73227112,0.0001147,53.2188,317.0934,61.9909,13.2535,-0.00021715,-0.00031018,0.0,0 STARLINK-4218,1 53025U 22076AR  22201.16667824 -.00031018  00000-0 -21715-3 0  9993,2 53025  53.2188 317.0934 0001147  61.9909  13.2535 15.73227112  2482,6727.818,91.532,350.455,348.911,0.0
53025.0,STARLINK-4218,PAYLOAD,2022-07-20 14:00:01,15.73224451,0.0001364,53.2189,315.0332,53.9531,222.4696,-0.0005136,-0.0007216,0.0,0 STARLINK-4218,1 53025U 22076AR  22201.58334491 -.00072160  00000-0 -51360-3 0  9992,2 53025  53.2189 315.0332 0001364  53.9531 222.4696 15.73224451  1301,6727.825,91.532,350.608,348.773,0.0
53025.0,STARLINK-4218,PAYLOAD,2022-07-20 22:00:01,15.73169493,0.0001337,53.2189,313.3835,49.5642,315.8157,-0.0004454,-0.00062584,0.0,0 STARLINK-4218,1 53025U 22076AR  22201.91668981 -.00062584  00000-0 -44540-3 0  9994,2 53025  53.2189 313.3835 0001337  49.5642 315.8157 15.73169493  1307,6727.982,91.535,350.747,348.9480000000001,0.0
53025.0,STARLINK-4218,PAYLOAD,2022-07-21 06:00:00,15.73204462,0.0001357,53.2175,311.7274,60.4914,33.6476,-6.2292e-06,-1.494e-05,0.0,0 STARLINK-4218,1 53025U 22076AR  22202.25001157 -.00001494  00000-0 -62292-5 0  9997,2 53025  53.2175 311.7274 0001357  60.4914  33.6476 15.73204462  2651,6727.882,91.533,350.66,348.834,0.0
53025.0,STARLINK-4218,PAYLOAD,2022-07-21 14:00:01,15.73185726,0.0001462,53.2188,310.0849,47.9868,135.2858,-2.2333e-05,-3.751e-05,0.0,0 STARLINK-4218,1 53025U 22076AR  22202.58335648 -.00003751  00000-0 -22333-4 0  9997,2 53025  53.2188 310.0849 0001462  47.9868 135.2858 15.73185726  1305,6727.936,91.534,350.784,348.81699999999995,0.0
53025.0,STARLINK-4218,PAYLOAD,2022-07-21 22:00:00,15.73218213,0.0001402,53.2182,308.435,46.1127,225.9981,3.1235e-05,3.769e-05,0.0,0 STARLINK-4218,1 53025U 22076AR  22202.91667824  .00003769  00000-0  31235-4 0  9996,2 53025  53.2182 308.4350 0001402  46.1127 225.9981 15.73218213  1302,6727.843000000003,91.532,350.651,348.765,0.0
53025.0,STARLINK-4218,PAYLOAD,2022-07-22 06:00:00,15.73213062,0.0001348,53.2185,306.7841,56.3948,304.6669,-0.0002308,-0.00032903,0.0,0 STARLINK-4218,1 53025U 22076AR  22203.25001157 -.00032903  00000-0 -23080-3 0  9997,2 53025  53.2185 306.7841 0001348  56.3948 304.6669 15.73213062  2816,6727.858,91.532,350.63,348.816,0.0
53025.0,STARLINK-4218,PAYLOAD,2022-07-22 22:00:00,15.73202049,0.0001465999999999,53.2188,303.4867,42.4336,136.4734,8.816600000000001e-05,0.00011772,0.0,0 STARLINK-4218,1 53025U 22076AR  22203.91667824  .00011772  00000-0  88166-4 0  9995,2 53025  53.2188 303.4867 0001466  42.4336 136.4734 15.73202049  2917,6727.889,91.533,350.741,348.76800000000014,0.0
53025.0,STARLINK-4218,PAYLOAD,2022-07-23 14:00:01,15.73152408,0.0001681,53.2187,300.1885,44.5665,312.2683,-0.00014191,-0.00020448,0.0,0 STARLINK-4218,1 53025U 22076AR  22204.58335648 -.00020448  00000-0 -14191-3 0  9993,2 53025  53.2187 300.1885 0001681  44.5665 312.2683 15.73152408  1309,6728.031,91.536,351.027,348.765,0.0
53025.0,STARLINK-4218,PAYLOAD,2022-07-23 16:00:00,15.73114806,0.0001656,53.2187,299.7766,40.8984,68.0979,0.00043281,0.00060338,0.0,0 STARLINK-4218,1 53025U 22076AR  22204.66667824  .00060338  00000-0  43281-3 0  9998,2 53025  53.2187 299.7766 0001656  40.8984  68.0979 15.73114806  3031,6728.138000000001,91.538,351.117,348.889,0.0
